{
  "type": "FeatureCollection",
  "features": [
    {
      "type": "Feature",
      "properties": {
        "name": "Mahanadi Downstream Channel",
        "dam_id": "dam-hirakud",
        "length_km": 50.0,
        "avg_width_m": 600.0,
        "slope": 0.0012
      },
      "geometry": {
        "type": "LineString",
        "coordinates": [
          [
            83.87,
            21.57
          ],
          [
            83.89,
            21.545
          ],
          [
            83.92,
            21.515
          ],
          [
            83.955,
            21.485
          ],
          [
            83.995,
            21.455
          ],
          [
            84.05,
            21.425
          ]
        ]
      }
    }
  ]
}